{"type": "FeatureCollection", "features": [{"type": "Feature", "geometry": {"type": "Point", "coordinates": [139.768311, 35.689198]}, "properties": {"id": "ts-0", "name": "千代田都税事務所", "address": "千代田区内神田2-1-12"}}, {"type": "Feature", "geometry": {"type": "Point", "coordinates": [139.774338, 35.697285]}, "properties": {"id": "ts-1", "name": "東京都中小企業振興公社", "address": "千代田区神田佐久間町1-9"}}, {"type": "Feature", "geometry": {"type": "Point", "coordinates": [139.731735, 35.685661]}, "properties": {"id": "ts-2", "name": "スクワール麹町", "address": "千代田区麹町6-6"}}, {"type": "Feature", "geometry": {"type": "Point", "coordinates": [139.754089, 35.672764]}, "properties": {"id": "ts-3", "name": "日比谷公園飲食店第二号（霞門横）", "address": "千代田区日比谷公園1-5"}}, {"type": "Feature", "geometry": {"type": "Point", "coordinates": [139.754089, 35.672764]}, "properties": {"id": "ts-4", "name": "「緑と水」の市民カレッジ", "address": "千代田区日比谷公園1-5"}}, {"type": "Feature", "geometry": {"type": "Point", "coordinates": [139.76387, 35.676849]}, "properties": {"id": "ts-5", "name": "東京国際フォーラム", "address": "千代田区丸の内3-5-1"}}, {"type": "Feature", "geometry": {"type": "Point", "coordinates": [139.781219, 35.695004]}, "properties": {"id": "ts-6", "name": "一橋高等学校", "address": "千代田区東神田1-12-13"}}, {"type": "Feature", "geometry": {"type": "Point", "coordinates": [139.764359, 35.674953]}, "properties": {"id": "ts-7", "name": "東京交通会館", "address": "千代田区有楽町2-10-1"}}, {"type": "Feature", "geometry": {"type": "Point", "coordinates": [139.78569, 35.680225]}, "properties": {"id": "ts-8", "name": "東京舞台芸術活動支援センター", "address": "中央区日本橋箱崎町18-14"}}, {"type": "Feature", "geometry": {"type": "Point", "coordinates": [139.786575, 35.661182]}, "properties": {"id": "ts-9", "name": "晴海総合高等学校", "address": "中央区晴海1-2-1"}}, {"type": "Feature", "geometry": {"type": "Point", "coordinates": [139.763412, 35.655239]}, "properties": {"id": "ts-10", "name": "ニューピア竹芝ノースタワー(ニューピアホール)", "address": "港区海岸1-11-1"}}, {"type": "Feature", "geometry": {"type": "Point", "coordinates": [139.763412, 35.655239]}, "properties": {"id": "ts-11", "name": "ホテルアジュール竹芝", "address": "港区海岸1-11-2"}}, {"type": "Feature", "geometry": {"type": "Point", "coordinates": [139.759583, 35.648914]}, "properties": {"id": "ts-12", "name": "島しょ農林水産総合センター", "address": "港区海岸2-7-104"}}, {"type": "Feature", "geometry": {"type": "Point", "coordinates": [139.751373, 35.632515]}, "properties": {"id": "ts-13", "name": "東京港建設事務所", "address": "港区港南3-9-56"}}, {"type": "Feature", "geometry": {"type": "Point", "coordinates": [139.777939, 35.63073]}, "properties": {"id": "ts-14", "name": "お台場海浜公園", "address": "港区台場１丁目"}}, {"type": "Feature", "geometry": {"type": "Point", "coordinates": [139.776321, 35.627892]}, "properties": {"id": "ts-15", "name": "台場フロンティアビル", "address": "港区台場2-3-2"}}, {"type": "Feature", "geometry": {"type": "Point", "coordinates": [139.742737, 35.653156]}, "properties": {"id": "ts-16", "name": "三田高等学校", "address": "港区三田1-4-46"}}, {"type": "Feature", "geometry": {"type": "Point", "coordinates": [139.725845, 35.652203]}, "properties": {"id": "ts-17", "name": "東京都立中央図書館", "address": "港区南麻布5-7-13"}}, {"type": "Feature", "geometry": {"type": "Point", "coordinates": [139.760773, 35.656395]}, "properties": {"id": "ts-18", "name": "芝商業高等学校", "address": "港区海岸1-8-25"}}, {"type": "Feature", "geometry": {"type": "Point", "coordinates": [139.730743, 35.65807]}, "properties": {"id": "ts-19", "name": "六本木高等学校", "address": "港区六本木6-16-36"}}, {"type": "Feature", "geometry": {"type": "Point", "coordinates": [139.760864, 35.655045]}, "properties": {"id": "ts-20", "name": "産業貿易センター浜松町館", "address": "港区海岸1-7-1"}}, {"type": "Feature", "geometry": {"type": "Point", "coordinates": [139.694427, 35.7047]}, "properties": {"id": "ts-21", "name": "淀橋市場", "address": "新宿区北新宿4-2-1"}}, {"type": "Feature", "geometry": {"type": "Point", "coordinates": [139.714996, 35.692692]}, "properties": {"id": "ts-22", "name": "総合芸術高等学校", "address": "新宿区富久町22-1"}}, {"type": "Feature", "geometry": {"type": "Point", "coordinates": [139.691772, 35.689629]}, "properties": {"id": "ts-23", "name": "東京都庁第一本庁舎", "address": "新宿区西新宿2-8-1"}}, {"type": "Feature", "geometry": {"type": "Point", "coordinates": [139.691772, 35.689629]}, "properties": {"id": "ts-24", "name": "東京都庁第二本庁舎", "address": "新宿区西新宿2-8-1"}}, {"type": "Feature", "geometry": {"type": "Point", "coordinates": [139.691772, 35.689629]}, "properties": {"id": "ts-25", "name": "東京都議会議事堂", "address": "新宿区西新宿2-8-1"}}, {"type": "Feature", "geometry": {"type": "Point", "coordinates": [139.69809, 35.696686]}, "properties": {"id": "ts-26", "name": "新宿都税事務所", "address": "新宿区西新宿7-5-8"}}, {"type": "Feature", "geometry": {"type": "Point", "coordinates": [139.719894, 35.688141]}, "properties": {"id": "ts-27", "name": "消防博物館", "address": "新宿区四谷3-10"}}, {"type": "Feature", "geometry": {"type": "Point", "coordinates": [139.712112, 35.706264]}, "properties": {"id": "ts-28", "name": "戸山高等学校", "address": "新宿区戸山3-19-1"}}, {"type": "Feature", "geometry": {"type": "Point", "coordinates": [139.746597, 35.703419]}, "properties": {"id": "ts-29", "name": "中央・城北職業能力開発センター", "address": "文京区後楽1-9-5"}}, {"type": "Feature", "geometry": {"type": "Point", "coordinates": [139.756607, 35.702198]}, "properties": {"id": "ts-30", "name": "教職員研修センター", "address": "文京区本郷1-3-3"}}, {"type": "Feature", "geometry": {"type": "Point", "coordinates": [139.744659, 35.729118]}, "properties": {"id": "ts-31", "name": "小石川中等教育学校", "address": "文京区本駒込2-29-29"}}, {"type": "Feature", "geometry": {"type": "Point", "coordinates": [139.754959, 35.721733]}, "properties": {"id": "ts-32", "name": "向丘高等学校", "address": "文京区向丘1-11-18"}}, {"type": "Feature", "geometry": {"type": "Point", "coordinates": [139.743393, 35.712524]}, "properties": {"id": "ts-33", "name": "竹早高等学校", "address": "文京区小石川4-2-1"}}, {"type": "Feature", "geometry": {"type": "Point", "coordinates": [139.755676, 35.702507]}, "properties": {"id": "ts-34", "name": "工芸高等学校", "address": "文京区本郷1-3-9"}}, {"type": "Feature", "geometry": {"type": "Point", "coordinates": [139.783218, 35.700806]}, "properties": {"id": "ts-35", "name": "忍岡高等学校", "address": "台東区浅草橋5-1-24"}}, {"type": "Feature", "geometry": {"type": "Point", "coordinates": [139.803101, 35.719707]}, "properties": {"id": "ts-36", "name": "浅草高等学校", "address": "台東区今戸1-8-13"}}, {"type": "Feature", "geometry": {"type": "Point", "coordinates": [139.776001, 35.714119]}, "properties": {"id": "ts-37", "name": "東京文化会館", "address": "台東区上野公園5-45"}}, {"type": "Feature", "geometry": {"type": "Point", "coordinates": [139.776505, 35.714809]}, "properties": {"id": "ts-38", "name": "上野グリーンサロン", "address": "台東区上野公園7-47"}}, {"type": "Feature", "geometry": {"type": "Point", "coordinates": [139.772598, 35.717754]}, "properties": {"id": "ts-39", "name": "東京都美術館", "address": "台東区上野公園8-36"}}, {"type": "Feature", "geometry": {"type": "Point", "coordinates": [139.79213, 35.709686]}, "properties": {"id": "ts-40", "name": "台東都税事務所", "address": "台東区雷門1-6-1"}}, {"type": "Feature", "geometry": {"type": "Point", "coordinates": [139.790985, 35.699936]}, "properties": {"id": "ts-41", "name": "蔵前工業高等学校", "address": "台東区蔵前1-3-57"}}, {"type": "Feature", "geometry": {"type": "Point", "coordinates": [139.798386, 35.714359]}, "properties": {"id": "ts-42", "name": "産業貿易センター台東館", "address": "台東区花川戸2-6-5"}}, {"type": "Feature", "geometry": {"type": "Point", "coordinates": [139.78302, 35.708439]}, "properties": {"id": "ts-43", "name": "白鴎高等学校", "address": "台東区元浅草1-6-22"}}, {"type": "Feature", "geometry": {"type": "Point", "coordinates": [139.769653, 35.719238]}, "properties": {"id": "ts-44", "name": "上野高等学校", "address": "台東区上野公園10-14"}}, {"type": "Feature", "geometry": {"type": "Point", "coordinates": [139.834061, 35.719944]}, "properties": {"id": "ts-45", "name": "皮革技術センター", "address": "墨田区東墨田3-3-14"}}, {"type": "Feature", "geometry": {"type": "Point", "coordinates": [139.816376, 35.722229]}, "properties": {"id": "ts-46", "name": "墨田川高等学校", "address": "墨田区東向島3-34-14"}}, {"type": "Feature", "geometry": {"type": "Point", "coordinates": [139.814804, 35.703644]}, "properties": {"id": "ts-47", "name": "本所都民防災教育センター", "address": "墨田区横川4-6-6"}}, {"type": "Feature", "geometry": {"type": "Point", "coordinates": [139.80986, 35.695141]}, "properties": {"id": "ts-48", "name": "両国高等学校", "address": "墨田区江東橋1-7-14"}}, {"type": "Feature", "geometry": {"type": "Point", "coordinates": [139.824661, 35.71946]}, "properties": {"id": "ts-49", "name": "日本橋高等学校", "address": "墨田区八広1-28-21"}}, {"type": "Feature", "geometry": {"type": "Point", "coordinates": [139.833069, 35.709663]}, "properties": {"id": "ts-50", "name": "橘高等学校", "address": "墨田区立花4-29-7"}}, {"type": "Feature", "geometry": {"type": "Point", "coordinates": [139.810959, 35.713657]}, "properties": {"id": "ts-51", "name": "本所高等学校", "address": "墨田区向島3-37-25"}}, {"type": "Feature", "geometry": {"type": "Point", "coordinates": [139.778885, 35.619205]}, "properties": {"id": "ts-52", "name": "産業技術研究センター本部", "address": "江東区青海2-4-10"}}, {"type": "Feature", "geometry": {"type": "Point", "coordinates": [139.776535, 35.617474]}, "properties": {"id": "ts-53", "name": "タイム２４ビル", "address": "江東区青海2-4-32"}}, {"type": "Feature", "geometry": {"type": "Point", "coordinates": [139.77977, 35.617535]}, "properties": {"id": "ts-54", "name": "テレコムセンタービル", "address": "江東区青海2-5-10"}}, {"type": "Feature", "geometry": {"type": "Point", "coordinates": [139.792313, 35.630508]}, "properties": {"id": "ts-55", "name": "東京国際展示場", "address": "江東区有明3-11-1"}}, {"type": "Feature", "geometry": {"type": "Point", "coordinates": [139.791199, 35.631336]}, "properties": {"id": "ts-56", "name": "TFTビル", "address": "江東区有明3-6-11"}}, {"type": "Feature", "geometry": {"type": "Point", "coordinates": [139.79425, 35.632969]}, "properties": {"id": "ts-57", "name": "有明パークビル", "address": "江東区有明3-7-11"}}, {"type": "Feature", "geometry": {"type": "Point", "coordinates": [139.791428, 35.631367]}, "properties": {"id": "ts-58", "name": "有明フロンティアビル", "address": "江東区有明3-7-26"}}, {"type": "Feature", "geometry": {"type": "Point", "coordinates": [139.82753, 35.689461]}, "properties": {"id": "ts-59", "name": "江東都税事務所", "address": "江東区大島3-1-3"}}, {"type": "Feature", "geometry": {"type": "Point", "coordinates": [139.818085, 35.679676]}, "properties": {"id": "ts-60", "name": "大江戸高等学校", "address": "江東区千石3-2-11"}}, {"type": "Feature", "geometry": {"type": "Point", "coordinates": [139.818619, 35.647079]}, "properties": {"id": "ts-61", "name": "東京辰巳国際水泳場", "address": "江東区辰巳2-8-10"}}, {"type": "Feature", "geometry": {"type": "Point", "coordinates": [139.816193, 35.671654]}, "properties": {"id": "ts-62", "name": "深川高等学校", "address": "江東区東陽5-32-19"}}, {"type": "Feature", "geometry": {"type": "Point", "coordinates": [139.83078, 35.66518]}, "properties": {"id": "ts-63", "name": "計量検定所", "address": "江東区新砂3-3-41"}}, {"type": "Feature", "geometry": {"type": "Point", "coordinates": [139.80687, 35.679321]}, "properties": {"id": "ts-64", "name": "東京都現代美術館", "address": "江東区三好4-1-1"}}, {"type": "Feature", "geometry": {"type": "Point", "coordinates": [139.834015, 35.614788]}, "properties": {"id": "ts-65", "name": "若洲海浜公園ヨット訓練所", "address": "江東区若洲3-1-1"}}, {"type": "Feature", "geometry": {"type": "Point", "coordinates": [139.806396, 35.685307]}, "properties": {"id": "ts-66", "name": "墨田工業高等学校", "address": "江東区森下5-1-7"}}, {"type": "Feature", "geometry": {"type": "Point", "coordinates": [139.787003, 35.636097]}, "properties": {"id": "ts-67", "name": "有明テニスの森公園テニス施設", "address": "江東区有明2-2-22"}}, {"type": "Feature", "geometry": {"type": "Point", "coordinates": [139.796646, 35.664413]}, "properties": {"id": "ts-68", "name": "第三商業高等学校", "address": "江東区越中島3-3-1"}}, {"type": "Feature", "geometry": {"type": "Point", "coordinates": [139.782837, 35.642284]}, "properties": {"id": "ts-69", "name": "豊洲市場", "address": "江東区豊洲6-6-１"}}, {"type": "Feature", "geometry": {"type": "Point", "coordinates": [139.815964, 35.608448]}, "properties": {"id": "ts-70", "name": "海の森水上競技場", "address": "江東区海の森3-6-44"}}, {"type": "Feature", "geometry": {"type": "Point", "coordinates": [139.795013, 35.64241]}, "properties": {"id": "ts-71", "name": "有明アリーナ", "address": "江東区有明1-11-1"}}, {"type": "Feature", "geometry": {"type": "Point", "coordinates": [139.81189, 35.652054]}, "properties": {"id": "ts-72", "name": "東京アクアティクスセンター", "address": "江東区辰巳2-2-1"}}, {"type": "Feature", "geometry": {"type": "Point", "coordinates": [139.799118, 35.599171]}, "properties": {"id": "ts-73", "name": "東京都廃棄物埋立管理事務所", "address": "江東区海の森2-4-76"}}, {"type": "Feature", "geometry": {"type": "Point", "coordinates": [139.747803, 35.605923]}, "properties": {"id": "ts-74", "name": "東京都立産業技術高等専門学校　品川キャンパス", "address": "品川区東大井1-10-40"}}, {"type": "Feature", "geometry": {"type": "Point", "coordinates": [139.749786, 35.611786]}, "properties": {"id": "ts-75", "name": "城南職業能力開発センター", "address": "品川区東品川3-31-16"}}, {"type": "Feature", "geometry": {"type": "Point", "coordinates": [139.751205, 35.5947]}, "properties": {"id": "ts-76", "name": "大井ふ頭中央海浜公園（スポーツセンター）", "address": "品川区八潮4-1-19"}}, {"type": "Feature", "geometry": {"type": "Point", "coordinates": [139.702896, 35.62146]}, "properties": {"id": "ts-77", "name": "小山台高等学校", "address": "品川区小山3-3-32"}}, {"type": "Feature", "geometry": {"type": "Point", "coordinates": [139.720352, 35.609982]}, "properties": {"id": "ts-78", "name": "大崎高等学校", "address": "品川区豊町2-1-7"}}, {"type": "Feature", "geometry": {"type": "Point", "coordinates": [139.729767, 35.608822]}, "properties": {"id": "ts-79", "name": "品川都税事務所", "address": "品川区広町2-1-36 品川区総合庁舎内"}}, {"type": "Feature", "geometry": {"type": "Point", "coordinates": [139.751205, 35.5947]}, "properties": {"id": "ts-80", "name": "大井ふ頭中央海浜公園ホッケー競技場", "address": "品川区八潮4-1-19、大田区東海1-2-1"}}, {"type": "Feature", "geometry": {"type": "Point", "coordinates": [139.715027, 35.642181]}, "properties": {"id": "ts-81", "name": "東京都写真美術館", "address": "目黒区三田1-13-3"}}, {"type": "Feature", "geometry": {"type": "Point", "coordinates": [139.685806, 35.655499]}, "properties": {"id": "ts-82", "name": "駒場高等学校", "address": "目黒区大橋2-18-1"}}, {"type": "Feature", "geometry": {"type": "Point", "coordinates": [139.673615, 35.622185]}, "properties": {"id": "ts-83", "name": "桜修館中等教育学校", "address": "目黒区八雲1-1-2"}}, {"type": "Feature", "geometry": {"type": "Point", "coordinates": [139.679214, 35.659485]}, "properties": {"id": "ts-84", "name": "国際高等学校", "address": "目黒区駒場2−19−59"}}, {"type": "Feature", "geometry": {"type": "Point", "coordinates": [139.723923, 35.558529]}, "properties": {"id": "ts-85", "name": "産業技術研究センター城南支所", "address": "大田区南蒲田1-20-20"}}, {"type": "Feature", "geometry": {"type": "Point", "coordinates": [139.70343, 35.592133]}, "properties": {"id": "ts-86", "name": "大田桜台高等学校", "address": "大田区中馬込3-11-10"}}, {"type": "Feature", "geometry": {"type": "Point", "coordinates": [139.759109, 35.582951]}, "properties": {"id": "ts-87", "name": "大田市場", "address": "大田区東海3-2-1"}}, {"type": "Feature", "geometry": {"type": "Point", "coordinates": [139.765182, 35.570965]}, "properties": {"id": "ts-88", "name": "京浜島勤労者厚生会館", "address": "大田区京浜島2-9"}}, {"type": "Feature", "geometry": {"type": "Point", "coordinates": [139.621094, 35.633293]}, "properties": {"id": "ts-89", "name": "世田谷市場", "address": "世田谷区大蔵1-4-1"}}, {"type": "Feature", "geometry": {"type": "Point", "coordinates": [139.619415, 35.618992]}, "properties": {"id": "ts-90", "name": "世田谷総合高等学校", "address": "世田谷区岡本2-9-1"}}, {"type": "Feature", "geometry": {"type": "Point", "coordinates": [139.657501, 35.626083]}, "properties": {"id": "ts-91", "name": "駒沢オリンピック公園総合運動場", "address": "世田谷区駒沢公園1-1"}}, {"type": "Feature", "geometry": {"type": "Point", "coordinates": [139.635468, 35.664101]}, "properties": {"id": "ts-92", "name": "松原高等学校", "address": "世田谷区桜上水4-3-5"}}, {"type": "Feature", "geometry": {"type": "Point", "coordinates": [139.59549, 35.651669]}, "properties": {"id": "ts-93", "name": "総合工科高等学校", "address": "世田谷区成城9-25-1"}}, {"type": "Feature", "geometry": {"type": "Point", "coordinates": [139.647919, 35.618172]}, "properties": {"id": "ts-94", "name": "園芸高等学校", "address": "世田谷区深沢5-38-1"}}, {"type": "Feature", "geometry": {"type": "Point", "coordinates": [139.647675, 35.623077]}, "properties": {"id": "ts-95", "name": "深沢高等学校", "address": "世田谷区深沢7-3-14"}}, {"type": "Feature", "geometry": {"type": "Point", "coordinates": [139.708435, 35.662521]}, "properties": {"id": "ts-96", "name": "東京ウィメンズプラザ", "address": "渋谷区神宮前5-53-67"}}, {"type": "Feature", "geometry": {"type": "Point", "coordinates": [139.713501, 35.68005]}, "properties": {"id": "ts-97", "name": "東京体育館", "address": "渋谷区千駄ヶ谷1-17-1"}}, {"type": "Feature", "geometry": {"type": "Point", "coordinates": [139.716476, 35.672836]}, "properties": {"id": "ts-98", "name": "青山高等学校", "address": "渋谷区神宮前2-1-8"}}, {"type": "Feature", "geometry": {"type": "Point", "coordinates": [139.712067, 35.652679]}, "properties": {"id": "ts-99", "name": "広尾高等学校", "address": "渋谷区東4-14-14"}}, {"type": "Feature", "geometry": {"type": "Point", "coordinates": [139.698914, 35.651318]}, "properties": {"id": "ts-100", "name": "第一商業高等学校", "address": "渋谷区鉢山町8-1"}}, {"type": "Feature", "geometry": {"type": "Point", "coordinates": [139.625992, 35.727715]}, "properties": {"id": "ts-101", "name": "稔ヶ丘高等学校", "address": "中野区上鷺宮5-11-1"}}, {"type": "Feature", "geometry": {"type": "Point", "coordinates": [139.663712, 35.709873]}, "properties": {"id": "ts-102", "name": "中野都税事務所", "address": "中野区中野4-6-15"}}, {"type": "Feature", "geometry": {"type": "Point", "coordinates": [139.644165, 35.720528]}, "properties": {"id": "ts-103", "name": "鷺宮高等学校", "address": "中野区若宮3-46-8"}}, {"type": "Feature", "geometry": {"type": "Point", "coordinates": [139.631226, 35.728615]}, "properties": {"id": "ts-104", "name": "武蔵丘高等学校", "address": "中野区上鷺宮2-14-1"}}, {"type": "Feature", "geometry": {"type": "Point", "coordinates": [139.66774, 35.689938]}, "properties": {"id": "ts-105", "name": "富士高等学校", "address": "中野区弥生町5-21-1"}}, {"type": "Feature", "geometry": {"type": "Point", "coordinates": [139.632126, 35.697006]}, "properties": {"id": "ts-106", "name": "杉並高等学校", "address": "杉並区成田西4-15-15"}}, {"type": "Feature", "geometry": {"type": "Point", "coordinates": [139.628052, 35.687115]}, "properties": {"id": "ts-107", "name": "豊多摩高等学校", "address": "杉並区成田西2-6-18"}}, {"type": "Feature", "geometry": {"type": "Point", "coordinates": [139.604034, 35.718266]}, "properties": {"id": "ts-108", "name": "農芸高等学校", "address": "杉並区今川3-25-1"}}, {"type": "Feature", "geometry": {"type": "Point", "coordinates": [139.734894, 35.737183]}, "properties": {"id": "ts-109", "name": "豊島市場", "address": "豊島区巣鴨5-1-5"}}, {"type": "Feature", "geometry": {"type": "Point", "coordinates": [139.707977, 35.728905]}, "properties": {"id": "ts-110", "name": "東京芸術劇場", "address": "豊島区西池袋1-8-1"}}, {"type": "Feature", "geometry": {"type": "Point", "coordinates": [139.706833, 35.72813]}, "properties": {"id": "ts-111", "name": "池袋都民防災教育センター", "address": "豊島区西池袋2-37-8"}}, {"type": "Feature", "geometry": {"type": "Point", "coordinates": [139.717758, 35.728413]}, "properties": {"id": "ts-112", "name": "労働相談情報センター池袋事務所", "address": "豊島区東池袋4-23-9"}}, {"type": "Feature", "geometry": {"type": "Point", "coordinates": [139.730026, 35.735924]}, "properties": {"id": "ts-113", "name": "文京高等学校", "address": "豊島区西巣鴨1-1-5"}}, {"type": "Feature", "geometry": {"type": "Point", "coordinates": [139.682526, 35.738995]}, "properties": {"id": "ts-114", "name": "豊島高等学校", "address": "豊島区千早4-9-21"}}, {"type": "Feature", "geometry": {"type": "Point", "coordinates": [139.684937, 35.736462]}, "properties": {"id": "ts-115", "name": "千早高等学校", "address": "豊島区千早3-46-21"}}, {"type": "Feature", "geometry": {"type": "Point", "coordinates": [139.728302, 35.753452]}, "properties": {"id": "ts-116", "name": "東京都障害者総合スポーツセンター", "address": "北区十条台1-2-2"}}, {"type": "Feature", "geometry": {"type": "Point", "coordinates": [139.730362, 35.746979]}, "properties": {"id": "ts-117", "name": "王子総合高等学校", "address": "北区滝野川3-54-7"}}, {"type": "Feature", "geometry": {"type": "Point", "coordinates": [139.710709, 35.765587]}, "properties": {"id": "ts-118", "name": "中央・城北職業能力開発センター赤羽校", "address": "北区西が丘3-7-8"}}, {"type": "Feature", "geometry": {"type": "Point", "coordinates": [139.708984, 35.769939]}, "properties": {"id": "ts-119", "name": "赤羽北桜高等学校", "address": "北区西が丘3-14-20"}}, {"type": "Feature", "geometry": {"type": "Point", "coordinates": [139.771805, 35.729454]}, "properties": {"id": "ts-120", "name": "荒川都税事務所", "address": "荒川区西日暮里2-25-1"}}, {"type": "Feature", "geometry": {"type": "Point", "coordinates": [139.772797, 35.749561]}, "properties": {"id": "ts-121", "name": "東京都立大学　荒川キャンパス", "address": "荒川区東尾久7-2-10"}}, {"type": "Feature", "geometry": {"type": "Point", "coordinates": [139.792252, 35.737709]}, "properties": {"id": "ts-122", "name": "荒川工業高等学校", "address": "荒川区南千住6-42-1"}}, {"type": "Feature", "geometry": {"type": "Point", "coordinates": [139.649078, 35.793266]}, "properties": {"id": "ts-123", "name": "板橋市場", "address": "板橋区高島平6-1-5"}}, {"type": "Feature", "geometry": {"type": "Point", "coordinates": [139.660889, 35.772072]}, "properties": {"id": "ts-124", "name": "板橋有徳高等学校", "address": "板橋区徳丸2-17-1"}}, {"type": "Feature", "geometry": {"type": "Point", "coordinates": [139.691025, 35.792824]}, "properties": {"id": "ts-125", "name": "中央・城北職業能力開発センター板橋校", "address": "板橋区舟渡2-2-1"}}, {"type": "Feature", "geometry": {"type": "Point", "coordinates": [139.689667, 35.741955]}, "properties": {"id": "ts-126", "name": "板橋高等学校", "address": "板橋区大谷口1-54-1"}}, {"type": "Feature", "geometry": {"type": "Point", "coordinates": [139.706131, 35.749283]}, "properties": {"id": "ts-127", "name": "板橋都税事務所", "address": "板橋区大山東町44-8"}}, {"type": "Feature", "geometry": {"type": "Point", "coordinates": [139.697296, 35.76033]}, "properties": {"id": "ts-128", "name": "北豊島工業高等学校", "address": "板橋区富士見町28-1"}}, {"type": "Feature", "geometry": {"type": "Point", "coordinates": [139.716187, 35.750793]}, "properties": {"id": "ts-129", "name": "北園高等学校", "address": "板橋区板橋4-14-1"}}, {"type": "Feature", "geometry": {"type": "Point", "coordinates": [139.674683, 35.753635]}, "properties": {"id": "ts-130", "name": "大山高等学校", "address": "板橋区小茂根5-18-1"}}, {"type": "Feature", "geometry": {"type": "Point", "coordinates": [139.642212, 35.757805]}, "properties": {"id": "ts-131", "name": "練馬高等学校", "address": "練馬区春日町4-28-25"}}, {"type": "Feature", "geometry": {"type": "Point", "coordinates": [139.625961, 35.739265]}, "properties": {"id": "ts-132", "name": "第四商業高等学校", "address": "練馬区貫井3-45-19"}}, {"type": "Feature", "geometry": {"type": "Point", "coordinates": [139.653702, 35.755054]}, "properties": {"id": "ts-133", "name": "練馬工業高等学校", "address": "練馬区早宮2-9-18"}}, {"type": "Feature", "geometry": {"type": "Point", "coordinates": [139.625137, 35.767113]}, "properties": {"id": "ts-134", "name": "光丘高等学校", "address": "練馬区旭町2-1-35"}}, {"type": "Feature", "geometry": {"type": "Point", "coordinates": [139.599396, 35.727592]}, "properties": {"id": "ts-135", "name": "井草高等学校", "address": "練馬区上石神井2-2−43"}}, {"type": "Feature", "geometry": {"type": "Point", "coordinates": [139.572098, 35.730549]}, "properties": {"id": "ts-136", "name": "石神井高等学校", "address": "練馬区関町北4-32-48"}}, {"type": "Feature", "geometry": {"type": "Point", "coordinates": [139.592224, 35.747021]}, "properties": {"id": "ts-137", "name": "大泉高等学校", "address": "練馬区東大泉5-3-1"}}, {"type": "Feature", "geometry": {"type": "Point", "coordinates": [139.651352, 35.736973]}, "properties": {"id": "ts-138", "name": "練馬都税事務所", "address": "練馬区豊玉北6-13-10"}}, {"type": "Feature", "geometry": {"type": "Point", "coordinates": [139.763443, 35.799164]}, "properties": {"id": "ts-139", "name": "北足立市場", "address": "足立区入谷6-3-1"}}, {"type": "Feature", "geometry": {"type": "Point", "coordinates": [139.844772, 35.781078]}, "properties": {"id": "ts-140", "name": "足立東高等学校", "address": "足立区大谷田2-3-5"}}, {"type": "Feature", "geometry": {"type": "Point", "coordinates": [139.768051, 35.776588]}, "properties": {"id": "ts-141", "name": "足立西高等学校", "address": "足立区江北5-7-1"}}, {"type": "Feature", "geometry": {"type": "Point", "coordinates": [139.742249, 35.770275]}, "properties": {"id": "ts-142", "name": "足立新田高等学校", "address": "足立区新田2-10-16"}}, {"type": "Feature", "geometry": {"type": "Point", "coordinates": [139.788116, 35.778122]}, "properties": {"id": "ts-143", "name": "足立都税事務所", "address": "足立区西新井栄町2-8-15"}}, {"type": "Feature", "geometry": {"type": "Point", "coordinates": [139.798706, 35.740688]}, "properties": {"id": "ts-144", "name": "足立市場", "address": "足立区千住橋戸町50"}}, {"type": "Feature", "geometry": {"type": "Point", "coordinates": [139.811951, 35.791786]}, "properties": {"id": "ts-145", "name": "淵江高等学校", "address": "足立区東保木間2-10-1"}}, {"type": "Feature", "geometry": {"type": "Point", "coordinates": [139.825058, 35.765015]}, "properties": {"id": "ts-146", "name": "東京武道館", "address": "足立区綾瀬3-20-1"}}, {"type": "Feature", "geometry": {"type": "Point", "coordinates": [139.824265, 35.767082]}, "properties": {"id": "ts-147", "name": "城東職業能力開発センター", "address": "足立区綾瀬5-6-1"}}, {"type": "Feature", "geometry": {"type": "Point", "coordinates": [139.777695, 35.788048]}, "properties": {"id": "ts-148", "name": "足立工業高等学校", "address": "足立区西新井4-30-1"}}, {"type": "Feature", "geometry": {"type": "Point", "coordinates": [139.851837, 35.752735]}, "properties": {"id": "ts-149", "name": "産業技術研究センター城東支所", "address": "葛飾区青戸7-2-5"}}, {"type": "Feature", "geometry": {"type": "Point", "coordinates": [139.848358, 35.744709]}, "properties": {"id": "ts-150", "name": "南葛飾高等学校", "address": "葛飾区立石6-4-1"}}, {"type": "Feature", "geometry": {"type": "Point", "coordinates": [139.87973, 35.683552]}, "properties": {"id": "ts-151", "name": "葛西工業高等学校", "address": "江戸川区一之江7-68-1"}}, {"type": "Feature", "geometry": {"type": "Point", "coordinates": [139.874863, 35.706223]}, "properties": {"id": "ts-152", "name": "城東職業能力開発センター江戸川校", "address": "江戸川区中央2-31-27"}}, {"type": "Feature", "geometry": {"type": "Point", "coordinates": [139.868256, 35.709316]}, "properties": {"id": "ts-153", "name": "江戸川都税事務所", "address": "江戸川区中央4-24-19"}}, {"type": "Feature", "geometry": {"type": "Point", "coordinates": [139.91629, 35.700775]}, "properties": {"id": "ts-154", "name": "篠崎高等学校", "address": "江戸川区東篠崎1-10-1"}}, {"type": "Feature", "geometry": {"type": "Point", "coordinates": [139.863449, 35.648991]}, "properties": {"id": "ts-155", "name": "葛西市場", "address": "江戸川区臨海町3-4-1"}}, {"type": "Feature", "geometry": {"type": "Point", "coordinates": [139.865631, 35.70845]}, "properties": {"id": "ts-156", "name": "江戸川高等学校", "address": "江戸川区松島2-38-1"}}, {"type": "Feature", "geometry": {"type": "Point", "coordinates": [139.87059, 35.653336]}, "properties": {"id": "ts-157", "name": "葛西南高等学校", "address": "江戸川区南葛西1-11-1"}}, {"type": "Feature", "geometry": {"type": "Point", "coordinates": [139.851349, 35.703037]}, "properties": {"id": "ts-158", "name": "小松川高等学校", "address": "江戸川区平井1-27-10"}}, {"type": "Feature", "geometry": {"type": "Point", "coordinates": [139.853012, 35.644238]}, "properties": {"id": "ts-159", "name": "カヌー・スラロームセンター", "address": "江戸川区臨海町6-1-1"}}, {"type": "Feature", "geometry": {"type": "Point", "coordinates": [139.317535, 35.654625]}, "properties": {"id": "ts-160", "name": "八王子拓真高等学校", "address": "八王子市台町3-25-1"}}, {"type": "Feature", "geometry": {"type": "Point", "coordinates": [139.328674, 35.649967]}, "properties": {"id": "ts-161", "name": "多摩職業能力開発センター八王子校", "address": "八王子市台町1-11-1"}}, {"type": "Feature", "geometry": {"type": "Point", "coordinates": [139.409882, 35.628689]}, "properties": {"id": "ts-162", "name": "松が谷高等学校", "address": "八王子市松が谷1772"}}, {"type": "Feature", "geometry": {"type": "Point", "coordinates": [139.376968, 35.616882]}, "properties": {"id": "ts-163", "name": "東京都立大学　南大沢キャンパス", "address": "八王子市南大沢1-1"}}, {"type": "Feature", "geometry": {"type": "Point", "coordinates": [139.343765, 35.660248]}, "properties": {"id": "ts-164", "name": "南多摩中等教育学校", "address": "八王子市明神町4-20-1"}}, {"type": "Feature", "geometry": {"type": "Point", "coordinates": [139.305069, 35.657742]}, "properties": {"id": "ts-165", "name": "八王子桑志高等学校", "address": "八王子市千人町4-8-1"}}, {"type": "Feature", "geometry": {"type": "Point", "coordinates": [139.302094, 35.684837]}, "properties": {"id": "ts-166", "name": "八王子北高等学校", "address": "八王子市楢原町601"}}, {"type": "Feature", "geometry": {"type": "Point", "coordinates": [139.301529, 35.6563]}, "properties": {"id": "ts-167", "name": "富士森高等学校", "address": "八王子市長房町420−2"}}, {"type": "Feature", "geometry": {"type": "Point", "coordinates": [139.284119, 35.629959]}, "properties": {"id": "ts-168", "name": "翔陽高等学校", "address": "八王子市館町 1097-136"}}, {"type": "Feature", "geometry": {"type": "Point", "coordinates": [139.342804, 35.656578]}, "properties": {"id": "ts-169", "name": "多摩産業交流センター", "address": "八王子市明神町3-19-2"}}, {"type": "Feature", "geometry": {"type": "Point", "coordinates": [139.426147, 35.702988]}, "properties": {"id": "ts-170", "name": "立川国際中等教育学校", "address": "立川市曙町3-29-37"}}, {"type": "Feature", "geometry": {"type": "Point", "coordinates": [139.406281, 35.715286]}, "properties": {"id": "ts-171", "name": "立川都民防災教育センター（立川防災館）", "address": "立川市泉町1156-1"}}, {"type": "Feature", "geometry": {"type": "Point", "coordinates": [139.420792, 35.692543]}, "properties": {"id": "ts-172", "name": "立川都税事務所", "address": "立川市錦町4-6-3　東京都立川合同庁舎内"}}, {"type": "Feature", "geometry": {"type": "Point", "coordinates": [139.392761, 35.698669]}, "properties": {"id": "ts-173", "name": "東京都農林水産振興財団（立川庁舎）", "address": "立川市富士見町3-8-1"}}, {"type": "Feature", "geometry": {"type": "Point", "coordinates": [139.413086, 35.693211]}, "properties": {"id": "ts-174", "name": "立川高等学校", "address": "立川市錦町2-13-5"}}, {"type": "Feature", "geometry": {"type": "Point", "coordinates": [139.567719, 35.679092]}, "properties": {"id": "ts-175", "name": "三鷹中等教育学校", "address": "三鷹市新川6-21-21"}}, {"type": "Feature", "geometry": {"type": "Point", "coordinates": [139.245956, 35.789478]}, "properties": {"id": "ts-176", "name": "多摩高等学校", "address": "青梅市裏宿町580"}}, {"type": "Feature", "geometry": {"type": "Point", "coordinates": [139.28981, 35.780197]}, "properties": {"id": "ts-177", "name": "東京都青梅合同庁舎", "address": "青梅市河辺町6-4-1"}}, {"type": "Feature", "geometry": {"type": "Point", "coordinates": [139.311234, 35.792103]}, "properties": {"id": "ts-178", "name": "東京都農林水産振興財団（青梅庁舎）", "address": "青梅市新町6-7-1"}}, {"type": "Feature", "geometry": {"type": "Point", "coordinates": [139.269424, 35.789185]}, "properties": {"id": "ts-179", "name": "青梅総合高等学校", "address": "青梅市勝沼1-60-1"}}, {"type": "Feature", "geometry": {"type": "Point", "coordinates": [139.514389, 35.656624]}, "properties": {"id": "ts-180", "name": "府中東高等学校", "address": "府中市押立町4-21"}}, {"type": "Feature", "geometry": {"type": "Point", "coordinates": [139.499985, 35.672321]}, "properties": {"id": "ts-181", "name": "府中工業高等学校", "address": "府中市若松町2-19-1"}}, {"type": "Feature", "geometry": {"type": "Point", "coordinates": [139.478683, 35.676914]}, "properties": {"id": "ts-182", "name": "農業高等学校", "address": "府中市寿町1-10-2"}}, {"type": "Feature", "geometry": {"type": "Point", "coordinates": [139.474579, 35.686993]}, "properties": {"id": "ts-183", "name": "府中高等学校", "address": "府中市栄町3-3-1"}}, {"type": "Feature", "geometry": {"type": "Point", "coordinates": [139.464966, 35.65694]}, "properties": {"id": "ts-184", "name": "多摩職業能力開発センター府中校", "address": "府中市南町4-37-2"}}, {"type": "Feature", "geometry": {"type": "Point", "coordinates": [139.44635, 35.671597]}, "properties": {"id": "ts-185", "name": "府中西高等学校", "address": "府中市日新町4-6-7"}}, {"type": "Feature", "geometry": {"type": "Point", "coordinates": [139.393127, 35.699924]}, "properties": {"id": "ts-186", "name": "産業技術研究センター多摩テクノプラザ", "address": "昭島市東町3-6-1"}}, {"type": "Feature", "geometry": {"type": "Point", "coordinates": [139.391693, 35.70063]}, "properties": {"id": "ts-187", "name": "多摩職業能力開発センター", "address": "昭島市東町3-6-33"}}, {"type": "Feature", "geometry": {"type": "Point", "coordinates": [139.386948, 35.703621]}, "properties": {"id": "ts-188", "name": "昭和高等学校", "address": "昭島市東町2-3-21"}}, {"type": "Feature", "geometry": {"type": "Point", "coordinates": [139.5289, 35.66367]}, "properties": {"id": "ts-189", "name": "味の素スタジアム（調布庁舎）", "address": "調布市西町376-3"}}, {"type": "Feature", "geometry": {"type": "Point", "coordinates": [139.539673, 35.643959]}, "properties": {"id": "ts-190", "name": "調布南高等学校", "address": "調布市多摩川6-2-1"}}, {"type": "Feature", "geometry": {"type": "Point", "coordinates": [139.52269, 35.666344]}, "properties": {"id": "ts-191", "name": "武蔵野の森総合スポーツプラザ", "address": "調布市西町290-11"}}, {"type": "Feature", "geometry": {"type": "Point", "coordinates": [139.422287, 35.575607]}, "properties": {"id": "ts-192", "name": "町田工業高等学校", "address": "町田市忠生1-20-2"}}, {"type": "Feature", "geometry": {"type": "Point", "coordinates": [139.416885, 35.57093]}, "properties": {"id": "ts-193", "name": "町田総合高等学校", "address": "町田市木曽西3-5-1"}}, {"type": "Feature", "geometry": {"type": "Point", "coordinates": [139.475357, 35.54208]}, "properties": {"id": "ts-194", "name": "成瀬高等学校", "address": "町田市成瀬7-4-1"}}, {"type": "Feature", "geometry": {"type": "Point", "coordinates": [139.448441, 35.553226]}, "properties": {"id": "ts-195", "name": "町田高等学校", "address": "町田市中町4-25-3"}}, {"type": "Feature", "geometry": {"type": "Point", "coordinates": [139.46933, 35.532124]}, "properties": {"id": "ts-196", "name": "小川高等学校", "address": "町田市小川2-1002-1"}}, {"type": "Feature", "geometry": {"type": "Point", "coordinates": [139.512238, 35.716274]}, "properties": {"id": "ts-197", "name": "江戸東京たてもの園", "address": "小金井市桜町3-7-1"}}, {"type": "Feature", "geometry": {"type": "Point", "coordinates": [139.500031, 35.69931]}, "properties": {"id": "ts-198", "name": "多摩科学技術高等学校", "address": "小金井市本町6-8-9"}}, {"type": "Feature", "geometry": {"type": "Point", "coordinates": [139.516815, 35.705711]}, "properties": {"id": "ts-199", "name": "小金井北高等学校", "address": "小金井市緑町4-1-1"}}, {"type": "Feature", "geometry": {"type": "Point", "coordinates": [139.514526, 35.73035]}, "properties": {"id": "ts-200", "name": "立川都税事務所小平都税支所", "address": "小平市花小金井1-6-20"}}, {"type": "Feature", "geometry": {"type": "Point", "coordinates": [139.440826, 35.726398]}, "properties": {"id": "ts-201", "name": "小平西高等学校", "address": "小平市小川町1-502-95"}}, {"type": "Feature", "geometry": {"type": "Point", "coordinates": [139.483566, 35.731598]}, "properties": {"id": "ts-202", "name": "小平高等学校", "address": "小平市仲町112"}}, {"type": "Feature", "geometry": {"type": "Point", "coordinates": [139.474762, 35.711796]}, "properties": {"id": "ts-203", "name": "小平南高等学校", "address": "小平市上水本町6-21-1"}}, {"type": "Feature", "geometry": {"type": "Point", "coordinates": [139.386902, 35.6726]}, "properties": {"id": "ts-204", "name": "日野台高等学校", "address": "日野市大坂上4-16-1"}}, {"type": "Feature", "geometry": {"type": "Point", "coordinates": [139.366577, 35.661118]}, "properties": {"id": "ts-205", "name": "東京都立大学　日野キャンパス", "address": "日野市旭が丘6-6"}}, {"type": "Feature", "geometry": {"type": "Point", "coordinates": [139.396896, 35.651508]}, "properties": {"id": "ts-206", "name": "南平高等学校", "address": "日野市南平8-2-3"}}, {"type": "Feature", "geometry": {"type": "Point", "coordinates": [139.477127, 35.75956]}, "properties": {"id": "ts-207", "name": "東村山高等学校", "address": "東村山市恩多町4-26-1"}}, {"type": "Feature", "geometry": {"type": "Point", "coordinates": [139.469345, 35.698326]}, "properties": {"id": "ts-208", "name": "多摩図書館", "address": "国分寺市泉町2-2-26"}}, {"type": "Feature", "geometry": {"type": "Point", "coordinates": [139.448105, 35.711922]}, "properties": {"id": "ts-209", "name": "国分寺高等学校", "address": "国分寺市新町3-2-5"}}, {"type": "Feature", "geometry": {"type": "Point", "coordinates": [139.448761, 35.687832]}, "properties": {"id": "ts-210", "name": "国立高等学校", "address": "国立市東4-25-1"}}, {"type": "Feature", "geometry": {"type": "Point", "coordinates": [139.44635, 35.6866]}, "properties": {"id": "ts-211", "name": "東京都多摩障害者スポーツセンター", "address": "国立市富士見台2-1-1"}}, {"type": "Feature", "geometry": {"type": "Point", "coordinates": [139.44017, 35.688984]}, "properties": {"id": "ts-212", "name": "第五商業高等学校", "address": "国立市中3-4-1"}}, {"type": "Feature", "geometry": {"type": "Point", "coordinates": [139.322556, 35.736156]}, "properties": {"id": "ts-213", "name": "福生高等学校", "address": "福生市北田園2-11-3"}}, {"type": "Feature", "geometry": {"type": "Point", "coordinates": [139.337982, 35.716431]}, "properties": {"id": "ts-214", "name": "多摩工業高等学校", "address": "福生市熊川215"}}, {"type": "Feature", "geometry": {"type": "Point", "coordinates": [139.424866, 35.744926]}, "properties": {"id": "ts-215", "name": "東大和高等学校", "address": "東大和市中央3-945"}}, {"type": "Feature", "geometry": {"type": "Point", "coordinates": [139.515808, 35.769852]}, "properties": {"id": "ts-216", "name": "清瀬高等学校", "address": "清瀬市松山3-1-56"}}, {"type": "Feature", "geometry": {"type": "Point", "coordinates": [139.520157, 35.762337]}, "properties": {"id": "ts-217", "name": "東久留米総合高等学校", "address": "東久留米市幸町5-8-46"}}, {"type": "Feature", "geometry": {"type": "Point", "coordinates": [139.412109, 35.734982]}, "properties": {"id": "ts-218", "name": "上水高等学校", "address": "武蔵村山市大南4-62-1"}}, {"type": "Feature", "geometry": {"type": "Point", "coordinates": [139.365341, 35.757229]}, "properties": {"id": "ts-219", "name": "武蔵村山高等学校", "address": "武蔵村山市中原1-7-1"}}, {"type": "Feature", "geometry": {"type": "Point", "coordinates": [139.448563, 35.614353]}, "properties": {"id": "ts-220", "name": "永山高等学校", "address": "多摩市永山5-22"}}, {"type": "Feature", "geometry": {"type": "Point", "coordinates": [139.445084, 35.610317]}, "properties": {"id": "ts-221", "name": "多摩ニュータウン市場", "address": "多摩市永山7-4"}}, {"type": "Feature", "geometry": {"type": "Point", "coordinates": [139.477631, 35.617413]}, "properties": {"id": "ts-222", "name": "若葉総合高等学校", "address": "稲城市坂浜1434-3"}}, {"type": "Feature", "geometry": {"type": "Point", "coordinates": [139.332108, 35.766273]}, "properties": {"id": "ts-223", "name": "羽村高等学校", "address": "羽村市羽4152-1"}}, {"type": "Feature", "geometry": {"type": "Point", "coordinates": [139.217773, 35.728943]}, "properties": {"id": "ts-224", "name": "五日市高等学校", "address": "あきる野市五日市894"}}, {"type": "Feature", "geometry": {"type": "Point", "coordinates": [139.300125, 35.732365]}, "properties": {"id": "ts-225", "name": "秋留台高等学校", "address": "あきる野市平沢153-4"}}, {"type": "Feature", "geometry": {"type": "Point", "coordinates": [139.359375, 35.776951]}, "properties": {"id": "ts-226", "name": "瑞穂農芸高等学校", "address": "瑞穂町石畑2027"}}]}